{
  "type": "FeatureCollection",
  "features": [
    {
      "type": "Feature",
      "properties": {
        "norad_id": 35777,
        "name": "COSMOS 2251 DEB",
        "group": "cosmos-2251-debris",
        "lat": 31.955576570493584,
        "lon": -10.05973422179673,
        "alt_km": 1413.5039715028497,
        "timestamp": "2025-12-02T06:27:53.408019+00:00",
        "meta_object_name": "COSMOS 2251 DEB",
        "meta_object_id": "1993-036ARX",
        "meta_epoch": "2025-12-01T07:04:38.832096",
        "meta_mean_motion": 13.41285825,
        "meta_eccentricity": 0.045284,
        "meta_inclination": 73.7711,
        "meta_ra_of_asc_node": 341.029,
        "meta_arg_of_pericenter": 237.5027,
        "meta_mean_anomaly": 130.3294,
        "meta_ephemeris_type": 0,
        "meta_classification_type": "U",
        "meta_norad_cat_id": 35777,
        "meta_element_set_no": 999,
        "meta_rev_at_epoch": 79531,
        "meta_bstar": 0.000761,
        "meta_mean_motion_dot": 7.5e-06,
        "meta_mean_motion_ddot": 0,
        "tle_line1": "1 35777U 93036ARX 25335.29489389  .00000750  00000+0  76100-3 0  9998",
        "tle_line2": "2 35777  73.7711 341.0290 0452840 237.5027 130.3294 13.41285825795311"
      },
      "geometry": {
        "type": "Point",
        "coordinates": [
          -10.05973422179673,
          31.955576570493584
        ]
      }
    },
    {
      "type": "Feature",
      "properties": {
        "norad_id": 35784,
        "name": "COSMOS 2251 DEB",
        "group": "cosmos-2251-debris",
        "lat": 64.66247880866814,
        "lon": -107.82904456681587,
        "alt_km": 738.9907826803455,
        "timestamp": "2025-12-02T06:27:53.408029+00:00",
        "meta_object_name": "COSMOS 2251 DEB",
        "meta_object_id": "1993-036ASE",
        "meta_epoch": "2025-11-30T02:37:28.354944",
        "meta_mean_motion": 14.49985321,
        "meta_eccentricity": 0.00421284,
        "meta_inclination": 74.0362,
        "meta_ra_of_asc_node": 113.4211,
        "meta_arg_of_pericenter": 246.5375,
        "meta_mean_anomaly": 113.1355,
        "meta_ephemeris_type": 0,
        "meta_classification_type": "U",
        "meta_norad_cat_id": 35784,
        "meta_element_set_no": 999,
        "meta_rev_at_epoch": 65523,
        "meta_bstar": 0.00039422851,
        "meta_mean_motion_dot": 1.515e-05,
        "meta_mean_motion_ddot": 0,
        "tle_line1": "1 35784U 93036ASE 25334.10935596  .00001515  00000+0  39423-3 0  9998",
        "tle_line2": "2 35784  74.0362 113.4211 0042128 246.5375 113.1355 14.49985321655239"
      },
      "geometry": {
        "type": "Point",
        "coordinates": [
          -107.82904456681587,
          64.66247880866814
        ]
      }
    },
    {
      "type": "Feature",
      "properties": {
        "norad_id": 35786,
        "name": "COSMOS 2251 DEB",
        "group": "cosmos-2251-debris",
        "lat": 36.512472586981296,
        "lon": -128.27888278566982,
        "alt_km": 656.3770209366749,
        "timestamp": "2025-12-02T06:27:53.408041+00:00",
        "meta_object_name": "COSMOS 2251 DEB",
        "meta_object_id": "1993-036ASG",
        "meta_epoch": "2025-11-30T16:08:59.063712",
        "meta_mean_motion": 14.65989058,
        "meta_eccentricity": 0.00351749,
        "meta_inclination": 74.0143,
        "meta_ra_of_asc_node": 67.0519,
        "meta_arg_of_pericenter": 199.4194,
        "meta_mean_anomaly": 160.5637,
        "meta_ephemeris_type": 0,
        "meta_classification_type": "U",
        "meta_norad_cat_id": 35786,
        "meta_element_set_no": 999,
        "meta_rev_at_epoch": 73231,
        "meta_bstar": 0.0013382716,
        "meta_mean_motion_dot": 7.375e-05,
        "meta_mean_motion_ddot": 0,
        "tle_line1": "1 35786U 93036ASG 25334.67290583  .00007375  00000+0  13383-2 0  9998",
        "tle_line2": "2 35786  74.0143  67.0519 0035174 199.4194 160.5637 14.65989058732314"
      },
      "geometry": {
        "type": "Point",
        "coordinates": [
          -128.27888278566982,
          36.512472586981296
        ]
      }
    },
    {
      "type": "Feature",
      "properties": {
        "norad_id": 35789,
        "name": "COSMOS 2251 DEB",
        "group": "cosmos-2251-debris",
        "lat": -64.77059543113813,
        "lon": 160.99084349238942,
        "alt_km": 809.2935968435031,
        "timestamp": "2025-12-02T06:27:53.408051+00:00",
        "meta_object_name": "COSMOS 2251 DEB",
        "meta_object_id": "1993-036ASK",
        "meta_epoch": "2025-11-30T08:09:35.692416",
        "meta_mean_motion": 14.35969306,
        "meta_eccentricity": 0.00469384,
        "meta_inclination": 74.039,
        "meta_ra_of_asc_node": 307.1301,
        "meta_arg_of_pericenter": 49.9649,
        "meta_mean_anomaly": 310.5607,
        "meta_ephemeris_type": 0,
        "meta_classification_type": "U",
        "meta_norad_cat_id": 35789,
        "meta_element_set_no": 999,
        "meta_rev_at_epoch": 61049,
        "meta_bstar": 0.00014941887,
        "meta_mean_motion_dot": 4.13e-06,
        "meta_mean_motion_ddot": 0,
        "tle_line1": "1 35789U 93036ASK 25334.33999644  .00000413  00000+0  14942-3 0  9997",
        "tle_line2": "2 35789  74.0390 307.1301 0046938  49.9649 310.5607 14.35969306610491"
      },
      "geometry": {
        "type": "Point",
        "coordinates": [
          160.99084349238942,
          -64.77059543113813
        ]
      }
    },
    {
      "type": "Feature",
      "properties": {
        "norad_id": 35793,
        "name": "COSMOS 2251 DEB",
        "group": "cosmos-2251-debris",
        "lat": 35.163263447322976,
        "lon": -110.87616391425784,
        "alt_km": 629.5734653621339,
        "timestamp": "2025-12-02T06:27:53.408061+00:00",
        "meta_object_name": "COSMOS 2251 DEB",
        "meta_object_id": "1993-036ASP",
        "meta_epoch": "2025-11-29T00:24:11.235744",
        "meta_mean_motion": 14.78106278,
        "meta_eccentricity": 0.00040307,
        "meta_inclination": 74.0402,
        "meta_ra_of_asc_node": 87.138,
        "meta_arg_of_pericenter": 165.1184,
        "meta_mean_anomaly": 317.1346,
        "meta_ephemeris_type": 0,
        "meta_classification_type": "U",
        "meta_norad_cat_id": 35793,
        "meta_element_set_no": 999,
        "meta_rev_at_epoch": 65594,
        "meta_bstar": 0.0021008898,
        "meta_mean_motion_dot": 0.00015203,
        "meta_mean_motion_ddot": 0,
        "tle_line1": "1 35793U 93036ASP 25333.01679671  .00015203  00000+0  21009-2 0  9995",
        "tle_line2": "2 35793  74.0402  87.1380 0004030 165.1184 317.1346 14.78106278655944"
      },
      "geometry": {
        "type": "Point",
        "coordinates": [
          -110.87616391425784,
          35.163263447322976
        ]
      }
    },
    {
      "type": "Feature",
      "properties": {
        "norad_id": 35824,
        "name": "COSMOS 2251 DEB",
        "group": "cosmos-2251-debris",
        "lat": -41.84228010523006,
        "lon": 51.74527729173629,
        "alt_km": 1113.717455377734,
        "timestamp": "2025-12-02T06:27:53.408071+00:00",
        "meta_object_name": "COSMOS 2251 DEB",
        "meta_object_id": "1993-036ASW",
        "meta_epoch": "2025-12-01T15:07:21.053856",
        "meta_mean_motion": 13.88344325,
        "meta_eccentricity": 0.02504834,
        "meta_inclination": 73.8459,
        "meta_ra_of_asc_node": 67.8857,
        "meta_arg_of_pericenter": 155.9595,
        "meta_mean_anomaly": 205.347,
        "meta_ephemeris_type": 0,
        "meta_classification_type": "U",
        "meta_norad_cat_id": 35824,
        "meta_element_set_no": 999,
        "meta_rev_at_epoch": 84073,
        "meta_bstar": 0.0014921278,
        "meta_mean_motion_dot": 2.272e-05,
        "meta_mean_motion_ddot": 0,
        "tle_line1": "1 35824U 93036ASW 25335.63010479  .00002272  00000+0  14921-2 0  9992",
        "tle_line2": "2 35824  73.8459  67.8857 0250483 155.9595 205.3470 13.88344325840736"
      },
      "geometry": {
        "type": "Point",
        "coordinates": [
          51.74527729173629,
          -41.84228010523006
        ]
      }
    },
    {
      "type": "Feature",
      "properties": {
        "norad_id": 35825,
        "name": "COSMOS 2251 DEB",
        "group": "cosmos-2251-debris",
        "lat": -74.08124347405625,
        "lon": 66.6717878340988,
        "alt_km": 747.3102648987924,
        "timestamp": "2025-12-02T06:27:53.408081+00:00",
        "meta_object_name": "COSMOS 2251 DEB",
        "meta_object_id": "1993-036ASX",
        "meta_epoch": "2025-11-18T20:38:01.180896",
        "meta_mean_motion": 13.70825357,
        "meta_eccentricity": 0.03535711,
        "meta_inclination": 74.1138,
        "meta_ra_of_asc_node": 181.8907,
        "meta_arg_of_pericenter": 283.1782,
        "meta_mean_anomaly": 73.0118,
        "meta_ephemeris_type": 0,
        "meta_classification_type": "U",
        "meta_norad_cat_id": 35825,
        "meta_element_set_no": 999,
        "meta_rev_at_epoch": 82181,
        "meta_bstar": 0.0013809564,
        "meta_mean_motion_dot": 1.891e-05,
        "meta_mean_motion_ddot": 0,
        "tle_line1": "1 35825U 93036ASX 25322.85973589  .00001891  00000+0  13810-2 0  9995",
        "tle_line2": "2 35825  74.1138 181.8907 0353571 283.1782  73.0118 13.70825357821819"
      },
      "geometry": {
        "type": "Point",
        "coordinates": [
          66.6717878340988,
          -74.08124347405625
        ]
      }
    }
  ]
}